[{"OBJECT_NAME":"STARLINK-37274","OBJECT_ID":"2026-081AB","EPOCH":"2026-04-25T14:17:47.333472","MEAN_MOTION":15.81106291,"ECCENTRICITY":0.00029201,"INCLINATION":53.161,"RA_OF_ASC_NODE":185.6448,"ARG_OF_PERICENTER":120.0456,"MEAN_ANOMALY":240.0857,"EPHEMERIS_TYPE":0,"CLASSIFICATION_TYPE":"U","NORAD_CAT_ID":68724,"ELEMENT_SET_NO":999,"REV_AT_EPOCH":179,"BSTAR":-0.0018136336,"MEAN_MOTION_DOT":-0.00348524,"MEAN_MOTION_DDOT":0},{"OBJECT_NAME":"STARLINK-37275","OBJECT_ID":"2026-081AC","EPOCH":"2026-04-25T14:15:38.845440","MEAN_MOTION":15.80934754,"ECCENTRICITY":0.00016703,"INCLINATION":53.1595,"RA_OF_ASC_NODE":185.6353,"ARG_OF_PERICENTER":71.4122,"MEAN_ANOMALY":288.7082,"EPHEMERIS_TYPE":0,"CLASSIFICATION_TYPE":"U","NORAD_CAT_ID":68725,"ELEMENT_SET_NO":999,"REV_AT_EPOCH":179,"BSTAR":0.0025612943,"MEAN_MOTION_DOT":0.00539211,"MEAN_MOTION_DDOT":0},{"OBJECT_NAME":"STARLINK-37272","OBJECT_ID":"2026-081AD","EPOCH":"2026-04-25T14:16:42.511872","MEAN_MOTION":15.80919807,"ECCENTRICITY":0.00014994,"INCLINATION":53.1601,"RA_OF_ASC_NODE":185.6419,"ARG_OF_PERICENTER":69.7554,"MEAN_ANOMALY":290.363,"EPHEMERIS_TYPE":0,"CLASSIFICATION_TYPE":"U","NORAD_CAT_ID":68726,"ELEMENT_SET_NO":999,"REV_AT_EPOCH":179,"BSTAR":0.0016025791,"MEAN_MOTION_DOT":0.0032864,"MEAN_MOTION_DDOT":0},{"OBJECT_NAME":"STARLINK-37270","OBJECT_ID":"2026-081AE","EPOCH":"2026-04-25T14:14:33.146880","MEAN_MOTION":15.80913441,"ECCENTRICITY":0.00014116,"INCLINATION":53.1592,"RA_OF_ASC_NODE":185.6316,"ARG_OF_PERICENTER":31.6585,"MEAN_ANOMALY":328.4522,"EPHEMERIS_TYPE":0,"CLASSIFICATION_TYPE":"U","NORAD_CAT_ID":68727,"ELEMENT_SET_NO":999,"REV_AT_EPOCH":179,"BSTAR":0.0011352701,"MEAN_MOTION_DOT":0.00229859,"MEAN_MOTION_DDOT":0},{"OBJECT_NAME":"STARLINK-37242","OBJECT_ID":"2026-082A","EPOCH":"2026-04-26T00:00:02.999808","MEAN_MOTION":15.80743439,"ECCENTRICITY":0.00014507,"INCLINATION":97.2848,"RA_OF_ASC_NODE":338.2551,"ARG_OF_PERICENTER":89.8076,"MEAN_ANOMALY":128.8818,"EPHEMERIS_TYPE":0,"CLASSIFICATION_TYPE":"U","NORAD_CAT_ID":68728,"ELEMENT_SET_NO":999,"REV_AT_EPOCH":279,"BSTAR":0.00079901686,"MEAN_MOTION_DOT":0.00155145,"MEAN_MOTION_DDOT":0},{"OBJECT_NAME":"STARLINK-37264","OBJECT_ID":"2026-082B","EPOCH":"2026-04-26T00:00:02.999808","MEAN_MOTION":15.75116017,"ECCENTRICITY":0.00013777,"INCLINATION":97.2853,"RA_OF_ASC_NODE":338.2439,"ARG_OF_PERICENTER":105.8264,"MEAN_ANOMALY":89.2159,"EPHEMERIS_TYPE":0,"CLASSIFICATION_TYPE":"U","NORAD_CAT_ID":68729,"ELEMENT_SET_NO":999,"REV_AT_EPOCH":285,"BSTAR":0.0010272055,"MEAN_MOTION_DOT":0.00155406,"MEAN_MOTION_DDOT":0},{"OBJECT_NAME":"STARLINK-37230","OBJECT_ID":"2026-082C","EPOCH":"2026-04-26T00:00:02.999808","MEAN_MOTION":15.80744663,"ECCENTRICITY":0.00014573,"INCLINATION":97.2848,"RA_OF_ASC_NODE":338.2592,"ARG_OF_PERICENTER":105.553,"MEAN_ANOMALY":121.6866,"EPHEMERIS_TYPE":0,"CLASSIFICATION_TYPE":"U","NORAD_CAT_ID":68730,"ELEMENT_SET_NO":999,"REV_AT_EPOCH":285,"BSTAR":0.00076184431,"MEAN_MOTION_DOT":0.00147804,"MEAN_MOTION_DDOT":0},{"OBJECT_NAME":"STARLINK-37202","OBJECT_ID":"2026-082D","EPOCH":"2026-04-26T00:00:02.999808","MEAN_MOTION":15.75133396,"ECCENTRICITY":0.00011254,"INCLINATION":97.2848,"RA_OF_ASC_NODE":338.2541,"ARG_OF_PERICENTER":99.9968,"MEAN_ANOMALY":119.0481,"EPHEMERIS_TYPE":0,"CLASSIFICATION_TYPE":"U","NORAD_CAT_ID":68731,"ELEMENT_SET_NO":999,"REV_AT_EPOCH":279,"BSTAR":0.00056359567,"MEAN_MOTION_DOT":0.00084562,"MEAN_MOTION_DDOT":0},{"OBJECT_NAME":"STARLINK-37167","OBJECT_ID":"2026-082E","EPOCH":"2026-04-26T00:00:02.999808","MEAN_MOTION":15.80758637,"ECCENTRICITY":0.00015546,"INCLINATION":97.2856,"RA_OF_ASC_NODE":338.2616,"ARG_OF_PERICENTER":108.3991,"MEAN_ANOMALY":127.3846,"EPHEMERIS_TYPE":0,"CLASSIFICATION_TYPE":"U","NORAD_CAT_ID":68732,"ELEMENT_SET_NO":999,"REV_AT_EPOCH":285,"BSTAR":0.00064138554,"MEAN_MOTION_DOT":0.00124152,"MEAN_MOTION_DDOT":0},{"OBJECT_NAME":"STARLINK-37278","OBJECT_ID":"2026-082F","EPOCH":"2026-04-26T00:00:02.999808","MEAN_MOTION":15.80742692,"ECCENTRICITY":0.00012322,"INCLINATION":97.2856,"RA_OF_ASC_NODE":338.2642,"ARG_OF_PERICENTER":87.96,"MEAN_ANOMALY":152.0973,"EPHEMERIS_TYPE":0,"CLASSIFICATION_TYPE":"U","NORAD_CAT_ID":68733,"ELEMENT_SET_NO":999,"REV_AT_EPOCH":279,"BSTAR":0.00090441617,"MEAN_MOTION_DOT":0.00176046,"MEAN_MOTION_DDOT":0},{"OBJECT_NAME":"STARLINK-37349","OBJECT_ID":"2026-082G","EPOCH":"2026-04-26T00:00:02.999808","MEAN_MOTION":15.80758084,"ECCENTRICITY":0.00013843,"INCLINATION":97.2853,"RA_OF_ASC_NODE":338.2654,"ARG_OF_PERICENTER":88.0702,"MEAN_ANOMALY":156.2575,"EPHEMERIS_TYPE":0,"CLASSIFICATION_TYPE":"U","NORAD_CAT_ID":68734,"ELEMENT_SET_NO":999,"REV_AT_EPOCH":279,"BSTAR":0.00068487123,"MEAN_MOTION_DOT":0.00132706,"MEAN_MOTION_DDOT":0},{"OBJECT_NAME":"STARLINK-37339","OBJECT_ID":"2026-082H","EPOCH":"2026-04-26T00:00:02.999808","MEAN_MOTION":15.80749506,"ECCENTRICITY":0.00013993,"INCLINATION":97.2854,"RA_OF_ASC_NODE":338.2679,"ARG_OF_PERICENTER":89.2935,"MEAN_ANOMALY":159.3132,"EPHEMERIS_TYPE":0,"CLASSIFICATION_TYPE":"U","NORAD_CAT_ID":68735,"ELEMENT_SET_NO":999,"REV_AT_EPOCH":279,"BSTAR":0.00072694143,"MEAN_MOTION_DOT":0.00140945,"MEAN_MOTION_DDOT":0},{"OBJECT_NAME":"STARLINK-37327","OBJECT_ID":"2026-082J","EPOCH":"2026-04-26T00:00:02.999808","MEAN_MOTION":15.75130478,"ECCENTRICITY":0.00013995,"INCLINATION":97.2849,"RA_OF_ASC_NODE":338.259,"ARG_OF_PERICENTER":96.9186,"MEAN_ANOMALY":134.118,"EPHEMERIS_TYPE":0,"CLASSIFICATION_TYPE":"U","NORAD_CAT_ID":68736,"ELEMENT_SET_NO":999,"REV_AT_EPOCH":279,"BSTAR":0.00070202388,"MEAN_MOTION_DOT":0.00105613,"MEAN_MOTION_DDOT":0},{"OBJECT_NAME":"STARLINK-37348","OBJECT_ID":"2026-082K","EPOCH":"2026-04-26T00:00:02.999808","MEAN_MOTION":15.75131107,"ECCENTRICITY":0.00010502,"INCLINATION":97.2852,"RA_OF_ASC_NODE":338.2639,"ARG_OF_PERICENTER":123.2366,"MEAN_ANOMALY":117.7961,"EPHEMERIS_TYPE":0,"CLASSIFICATION_TYPE":"U","NORAD_CAT_ID":68737,"ELEMENT_SET_NO":999,"REV_AT_EPOCH":274,"BSTAR":0.00074421249,"MEAN_MOTION_DOT":0.00112054,"MEAN_MOTION_DDOT":0},{"OBJECT_NAME":"STARLINK-37331","OBJECT_ID":"2026-082L","EPOCH":"2026-04-26T00:00:02.999808","MEAN_MOTION":15.80738925,"ECCENTRICITY":0.00012397,"INCLINATION":97.2851,"RA_OF_ASC_NODE":338.2723,"ARG_OF_PERICENTER":102.6141,"MEAN_ANOMALY":158.8088,"EPHEMERIS_TYPE":0,"CLASSIFICATION_TYPE":"U","NORAD_CAT_ID":68738,"ELEMENT_SET_NO":999,"REV_AT_EPOCH":274,"BSTAR":0.00095899359,"MEAN_MOTION_DOT":0.0018688,"MEAN_MOTION_DDOT":0},{"OBJECT_NAME":"STARLINK-37338","OBJECT_ID":"2026-082M","EPOCH":"2026-04-26T00:00:02.999808","MEAN_MOTION":15.7505277,"ECCENTRICITY":7.345e-5,"INCLINATION":97.2852,"RA_OF_ASC_NODE":338.2683,"ARG_OF_PERICENTER":63.9062,"MEAN_ANOMALY":187.1142,"EPHEMERIS_TYPE":0,"CLASSIFICATION_TYPE":"U","NORAD_CAT_ID":68739,"ELEMENT_SET_NO":999,"REV_AT_EPOCH":279,"BSTAR":0.001069851,"MEAN_MOTION_DOT":0.00161537,"MEAN_MOTION_DDOT":0}]
