STARLINK-37274          
1 68724U 26081AB  26115.59568673 -.00348524  00000+0 -18136-2 0  9996
2 68724  53.1610 185.6448 0002920 120.0456 240.0857 15.81106291  1799
STARLINK-37275          
1 68725U 26081AC  26115.59419960  .00539211  00000+0  25613-2 0  9992
2 68725  53.1595 185.6353 0001670  71.4122 288.7082 15.80934754  1798
STARLINK-37272          
1 68726U 26081AD  26115.59493648  .00328640  00000+0  16026-2 0  9998
2 68726  53.1601 185.6419 0001499  69.7554 290.3630 15.80919807  1798
STARLINK-37270          
1 68727U 26081AE  26115.59343920  .00229859  00000+0  11353-2 0  9996
2 68727  53.1592 185.6316 0001411  31.6585 328.4522 15.80913441  1791
STARLINK-37242          
1 68728U 26082A   26116.00003472  .00155145  00000+0  79902-3 0  9991
2 68728  97.2848 338.2551 0001450  89.8076 128.8818 15.80743439  2794
STARLINK-37264          
1 68729U 26082B   26116.00003472  .00155406  00000+0  10272-2 0  9996
2 68729  97.2853 338.2439 0001377 105.8264  89.2159 15.75116017  2857
STARLINK-37230          
1 68730U 26082C   26116.00003472  .00147804  00000+0  76184-3 0  9996
2 68730  97.2848 338.2592 0001457 105.5530 121.6866 15.80744663  2851
STARLINK-37202          
1 68731U 26082D   26116.00003472  .00084562  00000+0  56360-3 0  9992
2 68731  97.2848 338.2541 0001125  99.9968 119.0481 15.75133396  2795
STARLINK-37167          
1 68732U 26082E   26116.00003472  .00124152  00000+0  64139-3 0  9996
2 68732  97.2856 338.2616 0001554 108.3991 127.3846 15.80758637  2856
STARLINK-37278          
1 68733U 26082F   26116.00003472  .00176046  00000+0  90442-3 0  9992
2 68733  97.2856 338.2642 0001232  87.9600 152.0973 15.80742692  2791
STARLINK-37349          
1 68734U 26082G   26116.00003472  .00132706  00000+0  68487-3 0  9992
2 68734  97.2853 338.2654 0001384  88.0702 156.2575 15.80758084  2791
STARLINK-37339          
1 68735U 26082H   26116.00003472  .00140945  00000+0  72694-3 0  9992
2 68735  97.2854 338.2679 0001399  89.2935 159.3132 15.80749506  2799
STARLINK-37327          
1 68736U 26082J   26116.00003472  .00105613  00000+0  70202-3 0  9999
2 68736  97.2849 338.2590 0001399  96.9186 134.1180 15.75130478  2799
STARLINK-37348          
1 68737U 26082K   26116.00003472  .00112054  00000+0  74421-3 0  9994
2 68737  97.2852 338.2639 0001050 123.2366 117.7961 15.75131107  2745
STARLINK-37331          
1 68738U 26082L   26116.00003472  .00186880  00000+0  95899-3 0  9995
2 68738  97.2851 338.2723 0001239 102.6141 158.8088 15.80738925  2743
STARLINK-37338          
1 68739U 26082M   26116.00003472  .00161537  00000+0  10699-2 0  9992
2 68739  97.2852 338.2683 0000734  63.9062 187.1142 15.75052770  2792
